ONEWEB-0446             
1 51640U 22012U   25059.21968492 -.00000568  00000+0 -16645-2 0  9999
2 51640  87.8883 130.7606 0001786  95.9916 264.1415 13.10371520147259
ONEWEB-0448             
1 51641U 22012V   25059.22466906 -.00000559  00000+0 -16368-2 0  9996
2 51641  87.8885 130.7597 0001924 106.6848 253.4491 13.10373464147220
ONEWEB-0449             
1 51642U 22012W   25059.61143877 -.00000450  00000+0 -13254-2 0  9990
2 51642  87.8878 130.6635 0001699 109.1022 251.0290 13.10374548148581
ONEWEB-0451             
1 51643U 22012X   25059.51901720  .00000046  00000+0  84762-4 0  9992
2 51643  87.9019 100.2037 0001745  99.7435 260.3893 13.17647446151283
ONEWEB-0452             
1 51644U 22012Y   25059.51732614  .00000037  00000+0  60939-4 0  9997
2 51644  87.9027 100.2600 0001873 107.2487 252.8850 13.17646942151293
ONEWEB-0456             
1 51646U 22012AA  25059.46868856 -.00000003  00000+0 -43964-4 0  9995
2 51646  87.8878 130.6548 0002110 100.8814 259.2551 13.10375018147306
ONEWEB-0457             
1 51647U 22012AB  25059.44543934 -.00000539  00000+0 -15812-2 0  9994
2 51647  87.8882 130.7047 0001520 105.8615 254.2680 13.10370687147300
ONEWEB-0458             
1 51648U 22012AC  25059.23795539 -.00000071  00000+0 -23985-3 0  9994
2 51648  87.8871 130.7434 0001971 106.9953 253.1391 13.10375036147238
